STARLINK-1093           
1 44970U 20001BJ  21206.53369641  .00000395  00000-0  45383-4 0  9999
2 44970  53.0575 325.0374 0001177 103.5744 256.5376 15.06394136 85954
STARLINK-1095           
1 44971U 20001BK  21206.39478272  .00014253  00000-0  11350-3 0  9999
2 44971  53.0223 301.3474 0003509  11.8666 348.2433 15.71516717 86270
STARLINK-1107           
1 44972U 20001BL  21206.50420371  .00000199  00000-0  32222-4 0  9996
2 44972  53.0545 325.1872 0001275 133.7537 226.3557 15.06400047 85967
STARLINK-1115           
1 44973U 20001BM  21206.54843504 -.00000564  00000-0 -19003-4 0  9998
2 44973  53.0559 324.9815 0001314 124.3871 235.7242 15.06399496 85968
STARLINK-1132           
1 45044U 20006A   21206.52264323 -.00000704  00000-0 -28397-4 0  9999
2 45044  53.0546 285.1006 0000994 123.1973 236.9111 15.06393855 82291
STARLINK-1120           
1 45045U 20006B   21206.37703763 -.00000208  00000-0  48938-5 0  9991
2 45045  53.0546 305.7579 0001200 133.5596 226.5492 15.06400664 81993
STARLINK-1129           
1 45046U 20006C   21206.57272543  .00002880  00000-0  20650-3 0  9997
2 45046  52.9992 302.8292 0001210 102.7067 257.4057 15.07427451 82039
STARLINK-1131           
1 45047U 20006D   21206.57976535 -.00001020  00000-0 -49598-4 0  9990
2 45047  53.0561 304.8419 0000968 122.3272 237.7811 15.06391538 82025
STARLINK-1134           
1 45048U 20006E   21206.32175491 -.00001464  00000-0 -79408-4 0  9991
2 45048  53.0560 305.9959 0001334 122.4819 237.6299 15.06395139 81986
STARLINK-1135           
1 45049U 20006F   21206.52448343 -.00000585  00000-0 -20416-4 0  9991
2 45049  53.0552 305.0961 0000908 130.8770 229.2298 15.06388399 82018
STARLINK-1140           
1 45050U 20006G   21206.53184890 -.00000004  00000-0  18610-4 0  9996
2 45050  53.0566 305.0651 0001343 125.7561 234.3553 15.06398384 82012
STARLINK-1141           
1 45051U 20006H   21206.52816036  .00001032  00000-0  88181-4 0  9991
2 45051  53.0543 305.0793 0000949 132.0906 228.0164 15.06395252 82019
STARLINK-1148           
1 45052U 20006J   21206.53921898  .00000033  00000-0  21122-4 0  9998
2 45052  53.0561 305.0301 0000855 140.8892 219.2159 15.06398191 82013
STARLINK-1155           
1 45053U 20006K   21206.53198069  .00003611  00000-0  25936-3 0  9996
2 45053  53.0008 304.2972 0000863 150.3338 209.7699 15.06660019 82019
STARLINK-1156           
1 45054U 20006L   21206.53552861  .00000515  00000-0  53446-4 0  9999
2 45054  53.0568 305.0325 0000540 140.9812 219.1216 15.06401322 82016
STARLINK-1159           
1 45057U 20006P   21206.28489793 -.00000802  00000-0 -34939-4 0  9994
2 45057  53.0542 306.1715 0001143 120.7711 239.3390 15.06390956 81982
STARLINK-1162           
1 45058U 20006Q   21206.54291120 -.00000103  00000-0  12003-4 0  9990
2 45058  53.0556 305.0132 0001204 124.3016 235.8087 15.06394110 82021
STARLINK-1165           
1 45059U 20006R   21206.56501881  .00000431  00000-0  47833-4 0  9993
2 45059  53.0553 304.9086 0001238 122.0099 238.1010 15.06402883 82027
STARLINK-1166           
1 45060U 20006S   21206.56133153 -.00000269  00000-0  84866-6 0  9997
2 45060  53.0553 304.9340 0001005 126.1134 233.9948 15.06402501 82029
STARLINK-1169           
1 45061U 20006T   21206.56871154 -.00000186  00000-0  64144-5 0  9992
2 45061  53.0554 304.8950 0001166 138.4278 221.6800 15.06392166 82026
STARLINK-1171           
1 45062U 20006U   21206.55397785  .00002105  00000-0  16022-3 0  9997
2 45062  53.0549 304.9568 0001075 115.4891 244.6210 15.06391820 82028
STARLINK-1178           
1 45063U 20006V   21206.57218347  .00030726  00000-0  20600-2 0  9992
2 45063  53.0538 304.8690 0000355  53.9621 306.1401 15.06627826 82023
STARLINK-1133           
1 45064U 20006W   21206.50052361 -.00000619  00000-0 -22711-4 0  9995
2 45064  53.0543 285.2033 0001047 114.8506 245.2592 15.06395584 82297
STARLINK-1139           
1 45065U 20006X   21206.50419476  .00001509  00000-0  12014-3 0  9991
2 45065  53.0552 285.1883 0000802 130.7458 229.3601 15.06401364 82299
STARLINK-1145           
1 45066U 20006Y   21206.47841053 -.00000827  00000-0 -36694-4 0  9993
2 45066  53.0551 285.3011 0000849 128.2586 231.8479 15.06387263 82280
STARLINK-1150           
1 45067U 20006Z   21206.49314563 -.00000740  00000-0 -30820-4 0  9996
2 45067  53.0539 285.2360 0000881 135.0645 225.0415 15.06396876 82297
STARLINK-1161           
1 45068U 20006AA  21206.48206972  .00001824  00000-0  14126-3 0  9992
2 45068  53.0547 285.2908 0000697 144.8675 215.2360 15.06406156 82283
STARLINK-1163           
1 45069U 20006AB  21206.17763103  .00435393  83225-4  13484-2 0  9994
2 45069  53.0156 273.2728 0000549 107.3273 252.7813 15.91164491 82412
STARLINK-1164           
1 45070U 20006AC  21206.56324989  .01204564  79070-3  20288-2 0  9991
2 45070  53.0468 253.0454 0005307   2.6372 357.4686 16.02303208 82747
STARLINK-1167           
1 45071U 20006AD  21206.52632244 -.00002830  00000-0 -17122-3 0  9995
2 45071  53.0546 285.0861 0000847 131.0999 229.0063 15.06394484 82290
STARLINK-1168           
1 45072U 20006AE  21206.53001031 -.00000484  00000-0 -13652-4 0  9999
2 45072  53.0550 285.0749 0000615 123.1691 236.9357 15.06401068 82295
STARLINK-1170           
1 45073U 20006AF  21206.48945572  .00001993  00000-0  15266-3 0  9997
2 45073  53.0542 285.2492 0001041 118.4939 241.6155 15.06401184 82287
STARLINK-1172           
1 45074U 20006AG  21206.54105928  .00001975  00000-0  15144-3 0  9993
2 45074  53.0552 285.0206 0000794 139.9937 220.1111 15.06402744 82298
STARLINK-1174           
1 45075U 20006AH  21206.50788963  .00001029  00000-0  87922-4 0  9990
2 45075  53.0556 285.1683 0001013 112.4173 247.6923 15.06401231 82291
STARLINK-1180           
1 45076U 20006AJ  21206.51527037 -.00000970  00000-0 -46258-4 0  9998
2 45076  53.0534 285.1364 0000950 105.3365 254.7728 15.06404865 82295
STARLINK-1182           
1 45077U 20006AK  21206.33109426  .00204950  00000-0  11900-1 0  9992
2 45077  53.0540 285.8854 0001458 148.0854 212.0225 15.10710531 82266
STARLINK-1177           
1 45078U 20006AL  21206.53369360  .00001298  00000-0  10605-3 0  9993
2 45078  53.0540 285.0329 0000850 100.2895 259.8189 15.06391194 82281
STARLINK-1149           
1 45079U 20006AM  21206.51157267 -.00000556  00000-0 -18425-4 0  9990
2 45079  53.0558 285.1567 0000801 120.9937 239.1130 15.06402595 82283
STARLINK-1153           
1 45080U 20006AN  21206.51894833 -.00000566  00000-0 -19079-4 0  9996
2 45080  53.0542 285.1207 0001264 119.3112 240.8004 15.06396164 82294
STARLINK-1151           
1 45081U 20006AP  21206.49683961 -.00000704  00000-0 -28415-4 0  9990
2 45081  53.0552 285.2181 0000889 140.8728 219.2325 15.06387977 82290
STARLINK-1160           
1 45082U 20006AQ  21206.48577092 -.00000366  00000-0 -56742-5 0  9996
2 45082  53.0550 285.2717 0000605 142.7943 217.3088 15.06404681 82286
STARLINK-1190           
1 45083U 20006AR  21206.38442043 -.00000173  00000-0  72643-5 0  9996
2 45083  53.0554 305.7237 0001025 119.5611 240.5481 15.06387391 81997
STARLINK-1173           
1 45084U 20006AS  21206.43232958 -.00000603  00000-0 -21612-4 0  9993
2 45084  53.0542 265.5042 0000635 126.1231 233.9817 15.06398944 82569
STARLINK-1179           
1 45085U 20006AT  21206.42863897  .00000865  00000-0  76927-4 0  9992
2 45085  53.0536 265.5161 0000466 110.5407 249.5632 15.06401218 82566
STARLINK-1181           
1 45086U 20006AU  21206.49405082  .00001635  00000-0  12762-3 0  9990
2 45086  53.0031 263.9943 0001255 122.5327 237.5782 15.06701867 82496
STARLINK-1185           
1 45087U 20006AV  21206.21483648  .00001872  00000-0  14446-3 0  9999
2 45087  53.0529 266.4773 0000355 123.3789 236.7234 15.06419756 82530
STARLINK-1183           
1 45088U 20006AW  21206.50236069  .00000598  00000-0  59017-4 0  9993
2 45088  53.0542 265.1991 0000469 147.9192 212.1825 15.06396501 82570
STARLINK-1136           
1 45089U 20006AX  21206.43970695  .00000592  00000-0  58605-4 0  9992
2 45089  53.0546 265.4773 0000655 116.5037 243.6019 15.06394505 82579
STARLINK-1176           
1 45090U 20006AY  21206.42127375  .00000840  00000-0  75282-4 0  9998
2 45090  53.0542 265.5540 0000823 133.3731 226.7327 15.06393848 82567
STARLINK-1127           
1 45091U 20006AZ  21206.45657550  .00465241  00000-0  27529-2 0  9994
2 45091  53.0535 244.1852 0001683 276.7048  83.3780 15.76233486 82868
STARLINK-1137           
1 45092U 20006BA  21206.46182137 -.00001060  00000-0 -52312-4 0  9997
2 45092  53.0542 265.3759 0000696 120.8374 239.2683 15.06397425 82560
STARLINK-1142           
1 45093U 20006BB  21206.52447509  .00000522  00000-0  53933-4 0  9992
2 45093  53.0543 265.0918 0000390  99.1422 260.9611 15.06395782 82576
STARLINK-1146           
1 45094U 20006BC  21206.53922084  .00000793  00000-0  72118-4 0  9996
2 45094  53.0531 265.0178 0000742 116.0729 244.0337 15.06393478 82581
STARLINK-1147           
1 45095U 20006BD  21206.21117735 -.00000791  00000-0 -34222-4 0  9995
2 45095  53.0549 266.4951 0000581 126.5932 233.5111 15.06398295 82538
STARLINK-1152           
1 45096U 20006BE  21206.53554197 -.00000932  00000-0 -43734-4 0  9993
2 45096  53.0547 265.0492 0000455 118.8876 241.2159 15.06390591 82576
STARLINK-1184           
1 45098U 20006BG  21206.51710482  .00001052  00000-0  89491-4 0  9996
2 45098  53.0546 265.1262 0000621 128.6734 231.4311 15.06400643 82571
STARLINK-1186           
1 45099U 20006BH  21206.21855221 -.00000965  00000-0 -45904-4 0  9990
2 45099  53.0531 266.4552 0000656 140.0985 220.0053 15.06390719 82531
STARLINK-1193           
1 45100U 20006BJ  21206.51342116  .00000754  00000-0  69469-4 0  9996
2 45100  53.0529 265.1466 0000434 104.7161 255.3876 15.06395560 82575
STARLINK-1194           
1 45101U 20006BK  21206.44338341  .00000483  00000-0  51318-4 0  9997
2 45101  53.0538 265.4510 0000669 158.8208 201.2809 15.06395547 82561
